{"type":"FeatureCollection","name":"fire-station-locations - 4326","crs":{"type":"name","properties":{"name":"urn:ogc:def:crs:OGC:1.3:CRS84"}},"features":[{"type":"Feature","properties":{"_id":1,"ADDRESS_POINT_ID":4236992.0,"ADDRESS_NUMBER":"900","LINEAR_NAME_FULL":"Tapscott Rd","ADDRESS":"900 Tapscott Rd","MUNICIPALITY_NAME":"Scarborough","CENTRELINE_ID":4236991,"OBJECTID":1520443,"ID":83,"STATION":211,"YEAR_BUILD":1982,"WARD":23,"WARD_NAME":"Scarborough North","TYPE_DESC":"Fire Station","PUBLIC_ED_OFFICE":" ","FIRE_PREV_OFFICE":" ","FIRE_OTHER":" "},"geometry":{"type":"MultiPoint","coordinates":[[-79.24287003538682,43.82399272520154]]}},{"type":"Feature","properties":{"_id":2,"ADDRESS_POINT_ID":6349868.0,"ADDRESS_NUMBER":"745","LINEAR_NAME_FULL":"Meadowvale Rd","ADDRESS":"745 Meadowvale Rd","MUNICIPALITY_NAME":"Scarborough","CENTRELINE_ID":6349869,"OBJECTID":1567567,"ID":82,"STATION":214,"YEAR_BUILD":1982,"WARD":25,"WARD_NAME":"Scarborough-Rouge Park","TYPE_DESC":"Fire Station","PUBLIC_ED_OFFICE":" ","FIRE_PREV_OFFICE":" ","FIRE_OTHER":" "},"geometry":{"type":"MultiPoint","coordinates":[[-79.16360160417264,43.794210766943564]]}},{"type":"Feature","properties":{"_id":3,"ADDRESS_POINT_ID":10757599.0,"ADDRESS_NUMBER":"140","LINEAR_NAME_FULL":"Lansdowne Ave","ADDRESS":"140 Lansdowne Ave","MUNICIPALITY_NAME":"former Toronto","CENTRELINE_ID":14674741,"OBJECTID":1578612,"ID":17,"STATION":426,"YEAR_BUILD":1972,"WARD":4,"WARD_NAME":"Parkdale-High Park","TYPE_DESC":"Fire Station","PUBLIC_ED_OFFICE":" ","FIRE_PREV_OFFICE":" ","FIRE_OTHER":" "},"geometry":{"type":"MultiPoint","coordinates":[[-79.43886670039956,43.64508644083693]]}},{"type":"Feature","properties":{"_id":4,"ADDRESS_POINT_ID":4792285.0,"ADDRESS_NUMBER":"10","LINEAR_NAME_FULL":"William Carson Cres","ADDRESS":"10 William Carson Cres","MUNICIPALITY_NAME":"North York","CENTRELINE_ID":13971133,"OBJECTID":1662173,"ID":55,"STATION":121,"YEAR_BUILD":1988,"WARD":15,"WARD_NAME":"Don Valley West","TYPE_DESC":"Fire Station","PUBLIC_ED_OFFICE":"Public Education Office (N)","FIRE_PREV_OFFICE":" ","FIRE_OTHER":" "},"geometry":{"type":"MultiPoint","coordinates":[[-79.40678074949807,43.74854007722894]]}},{"type":"Feature","properties":{"_id":5,"ADDRESS_POINT_ID":7063061.0,"ADDRESS_NUMBER":"267","LINEAR_NAME_FULL":"Humberline Dr","ADDRESS":"267 Humberline Dr","MUNICIPALITY_NAME":"Etobicoke","CENTRELINE_ID":7063044,"OBJECTID":1662239,"ID":66,"STATION":412,"YEAR_BUILD":1975,"WARD":1,"WARD_NAME":"Etobicoke North","TYPE_DESC":"Fire Station","PUBLIC_ED_OFFICE":" ","FIRE_PREV_OFFICE":"Fire Prevention Office (W)","FIRE_OTHER":" "},"geometry":{"type":"MultiPoint","coordinates":[[-79.6176378075318,43.73810828935911]]}},{"type":"Feature","properties":{"_id":6,"ADDRESS_POINT_ID":8823994.0,"ADDRESS_NUMBER":"115","LINEAR_NAME_FULL":"Parkway Forest Dr","ADDRESS":"115 Parkway Forest Dr","MUNICIPALITY_NAME":"North York","CENTRELINE_ID":8823988,"OBJECTID":1783376,"ID":71,"STATION":115,"YEAR_BUILD":1983,"WARD":17,"WARD_NAME":"Don Valley North","TYPE_DESC":"Fire Station","PUBLIC_ED_OFFICE":" ","FIRE_PREV_OFFICE":" ","FIRE_OTHER":" "},"geometry":{"type":"MultiPoint","coordinates":[[-79.34068607011201,43.77440355116445]]}},{"type":"Feature","properties":{"_id":7,"ADDRESS_POINT_ID":9847351.0,"ADDRESS_NUMBER":"476","LINEAR_NAME_FULL":"Lawrence Ave W","ADDRESS":"476 Lawrence Ave W","MUNICIPALITY_NAME":"North York","CENTRELINE_ID":9694792,"OBJECTID":1852933,"ID":34,"STATION":132,"YEAR_BUILD":1999,"WARD":8,"WARD_NAME":"Eglinton-Lawrence","TYPE_DESC":"Fire Station","PUBLIC_ED_OFFICE":" ","FIRE_PREV_OFFICE":" ","FIRE_OTHER":" "},"geometry":{"type":"MultiPoint","coordinates":[[-79.42857186691637,43.719798152339564]]}},{"type":"Feature","properties":{"_id":8,"ADDRESS_POINT_ID":10142756.0,"ADDRESS_NUMBER":"615","LINEAR_NAME_FULL":"Royal York Rd","ADDRESS":"615 Royal York Rd","MUNICIPALITY_NAME":"Etobicoke","CENTRELINE_ID":10142758,"OBJECTID":1918334,"ID":1,"STATION":433,"YEAR_BUILD":1953,"WARD":3,"WARD_NAME":"Etobicoke-Lakeshore","TYPE_DESC":"Fire Station","PUBLIC_ED_OFFICE":" ","FIRE_PREV_OFFICE":" ","FIRE_OTHER":" "},"geometry":{"type":"MultiPoint","coordinates":[[-79.50293816934983,43.628018538118255]]}},{"type":"Feature","properties":{"_id":9,"ADDRESS_POINT_ID":69771.0,"ADDRESS_NUMBER":"555","LINEAR_NAME_FULL":"Oakwood Ave","ADDRESS":"555 Oakwood Ave","MUNICIPALITY_NAME":"York","CENTRELINE_ID":7809,"OBJECTID":1961768,"ID":32,"STATION":341,"YEAR_BUILD":1968,"WARD":12,"WARD_NAME":"Toronto-St. Paul's","TYPE_DESC":"Fire Station","PUBLIC_ED_OFFICE":" ","FIRE_PREV_OFFICE":" ","FIRE_OTHER":" "},"geometry":{"type":"MultiPoint","coordinates":[[-79.4411405905638,43.69452030328318]]}},{"type":"Feature","properties":{"_id":10,"ADDRESS_POINT_ID":8741293.0,"ADDRESS_NUMBER":"20","LINEAR_NAME_FULL":"Balmoral Ave","ADDRESS":"20 Balmoral Ave","MUNICIPALITY_NAME":"former Toronto","CENTRELINE_ID":20062243,"OBJECTID":1995083,"ID":36,"STATION":311,"YEAR_BUILD":1911,"WARD":12,"WARD_NAME":"Toronto-St. Paul's","TYPE_DESC":"Fire Station","PUBLIC_ED_OFFICE":" ","FIRE_PREV_OFFICE":" ","FIRE_OTHER":" "},"geometry":{"type":"MultiPoint","coordinates":[[-79.39397584130063,43.68595080638596]]}},{"type":"Feature","properties":{"_id":11,"ADDRESS_POINT_ID":8837366.0,"ADDRESS_NUMBER":"153","LINEAR_NAME_FULL":"Chatham Ave","ADDRESS":"153 Chatham Ave","MUNICIPALITY_NAME":"former Toronto","CENTRELINE_ID":20080084,"OBJECTID":2004250,"ID":9,"STATION":323,"YEAR_BUILD":1963,"WARD":14,"WARD_NAME":"Toronto-Danforth","TYPE_DESC":"Fire Station","PUBLIC_ED_OFFICE":" ","FIRE_PREV_OFFICE":"Fire Prevention Office (E)","FIRE_OTHER":" "},"geometry":{"type":"MultiPoint","coordinates":[[-79.33466211530394,43.67954288782287]]}},{"type":"Feature","properties":{"_id":12,"ADDRESS_POINT_ID":2219446.0,"ADDRESS_NUMBER":"40","LINEAR_NAME_FULL":"Coronation Dr","ADDRESS":"40 Coronation Dr","MUNICIPALITY_NAME":"Scarborough","CENTRELINE_ID":2219434,"OBJECTID":2004920,"ID":79,"STATION":234,"YEAR_BUILD":1966,"WARD":24,"WARD_NAME":"Scarborough-Guildwood","TYPE_DESC":"Fire Station","PUBLIC_ED_OFFICE":" ","FIRE_PREV_OFFICE":" ","FIRE_OTHER":" "},"geometry":{"type":"MultiPoint","coordinates":[[-79.19152202912737,43.761068166342255]]}},{"type":"Feature","properties":{"_id":13,"ADDRESS_POINT_ID":330710.0,"ADDRESS_NUMBER":"2575","LINEAR_NAME_FULL":"Eglinton Ave E","ADDRESS":"2575 Eglinton Ave E","MUNICIPALITY_NAME":"Scarborough","CENTRELINE_ID":111065,"OBJECTID":2048861,"ID":68,"STATION":221,"YEAR_BUILD":2014,"WARD":20,"WARD_NAME":"Scarborough Southwest","TYPE_DESC":"Fire Station","PUBLIC_ED_OFFICE":" ","FIRE_PREV_OFFICE":" ","FIRE_OTHER":"Division Commander / Platoon Chiefs"},"geometry":{"type":"MultiPoint","coordinates":[[-79.25506270350353,43.73479014329829]]}},{"type":"Feature","properties":{"_id":14,"ADDRESS_POINT_ID":4570660.0,"ADDRESS_NUMBER":"2340","LINEAR_NAME_FULL":"Birchmount Rd","ADDRESS":"2340 Birchmount Rd","MUNICIPALITY_NAME":"Scarborough","CENTRELINE_ID":4570662,"OBJECTID":2063805,"ID":73,"STATION":244,"YEAR_BUILD":1971,"WARD":22,"WARD_NAME":"Scarborough-Agincourt","TYPE_DESC":"Fire Station","PUBLIC_ED_OFFICE":" ","FIRE_PREV_OFFICE":" ","FIRE_OTHER":" "},"geometry":{"type":"MultiPoint","coordinates":[[-79.2991153286616,43.781682495272456]]}},{"type":"Feature","properties":{"_id":15,"ADDRESS_POINT_ID":11541989.0,"ADDRESS_NUMBER":"143","LINEAR_NAME_FULL":"Bond Ave","ADDRESS":"143 Bond Ave","MUNICIPALITY_NAME":"North York","CENTRELINE_ID":11541986,"OBJECTID":2108616,"ID":70,"STATION":123,"YEAR_BUILD":1956,"WARD":16,"WARD_NAME":"Don Valley East","TYPE_DESC":"Fire Station","PUBLIC_ED_OFFICE":" ","FIRE_PREV_OFFICE":" ","FIRE_OTHER":" "},"geometry":{"type":"MultiPoint","coordinates":[[-79.34672603325102,43.74581400635624]]}},{"type":"Feature","properties":{"_id":16,"ADDRESS_POINT_ID":7785457.0,"ADDRESS_NUMBER":"3135","LINEAR_NAME_FULL":"Yonge St","ADDRESS":"3135 Yonge St","MUNICIPALITY_NAME":"former Toronto","CENTRELINE_ID":7785453,"OBJECTID":2119715,"ID":56,"STATION":131,"YEAR_BUILD":1931,"WARD":15,"WARD_NAME":"Don Valley West","TYPE_DESC":"Fire Station","PUBLIC_ED_OFFICE":" ","FIRE_PREV_OFFICE":" ","FIRE_OTHER":" "},"geometry":{"type":"MultiPoint","coordinates":[[-79.40215728239794,43.726217004985585]]}},{"type":"Feature","properties":{"_id":17,"ADDRESS_POINT_ID":9486826.0,"ADDRESS_NUMBER":"116","LINEAR_NAME_FULL":"Dorset Rd","ADDRESS":"116 Dorset Rd","MUNICIPALITY_NAME":"Scarborough","CENTRELINE_ID":14666179,"OBJECTID":2172861,"ID":77,"STATION":223,"YEAR_BUILD":1953,"WARD":20,"WARD_NAME":"Scarborough Southwest","TYPE_DESC":"Fire Station","PUBLIC_ED_OFFICE":" ","FIRE_PREV_OFFICE":" ","FIRE_OTHER":" "},"geometry":{"type":"MultiPoint","coordinates":[[-79.23326107765529,43.723956761795435]]}},{"type":"Feature","properties":{"_id":18,"ADDRESS_POINT_ID":8714126.0,"ADDRESS_NUMBER":"740","LINEAR_NAME_FULL":"Markham Rd","ADDRESS":"740 Markham Rd","MUNICIPALITY_NAME":"Scarborough","CENTRELINE_ID":8714123,"OBJECTID":2175731,"ID":80,"STATION":231,"YEAR_BUILD":1960,"WARD":24,"WARD_NAME":"Scarborough-Guildwood","TYPE_DESC":"Fire Station","PUBLIC_ED_OFFICE":" ","FIRE_PREV_OFFICE":" ","FIRE_OTHER":" "},"geometry":{"type":"MultiPoint","coordinates":[[-79.22778766284232,43.7646440088669]]}},{"type":"Feature","properties":{"_id":19,"ADDRESS_POINT_ID":4840624.0,"ADDRESS_NUMBER":"4560","LINEAR_NAME_FULL":"Sheppard Ave E","ADDRESS":"4560 Sheppard Ave E","MUNICIPALITY_NAME":"Scarborough","CENTRELINE_ID":4840625,"OBJECTID":2236216,"ID":49,"STATION":243,"YEAR_BUILD":1972,"WARD":23,"WARD_NAME":"Scarborough North","TYPE_DESC":"Fire Station","PUBLIC_ED_OFFICE":" ","FIRE_PREV_OFFICE":" ","FIRE_OTHER":" "},"geometry":{"type":"MultiPoint","coordinates":[[-79.2629602053098,43.78913691711762]]}},{"type":"Feature","properties":{"_id":20,"ADDRESS_POINT_ID":1027149.0,"ADDRESS_NUMBER":"666","LINEAR_NAME_FULL":"Renforth Dr","ADDRESS":"666 Renforth Dr","MUNICIPALITY_NAME":"Etobicoke","CENTRELINE_ID":910843,"OBJECTID":2238015,"ID":43,"STATION":444,"YEAR_BUILD":1965,"WARD":2,"WARD_NAME":"Etobicoke Centre","TYPE_DESC":"Fire Station","PUBLIC_ED_OFFICE":" ","FIRE_PREV_OFFICE":" ","FIRE_OTHER":" "},"geometry":{"type":"MultiPoint","coordinates":[[-79.58269598803079,43.657466739893444]]}},{"type":"Feature","properties":{"_id":21,"ADDRESS_POINT_ID":9980187.0,"ADDRESS_NUMBER":"1904","LINEAR_NAME_FULL":"Queen St E","ADDRESS":"1904 Queen St E","MUNICIPALITY_NAME":"former Toronto","CENTRELINE_ID":9980168,"OBJECTID":2309211,"ID":7,"STATION":227,"YEAR_BUILD":1905,"WARD":19,"WARD_NAME":"Beaches-East York","TYPE_DESC":"Fire Station","PUBLIC_ED_OFFICE":" ","FIRE_PREV_OFFICE":" ","FIRE_OTHER":" "},"geometry":{"type":"MultiPoint","coordinates":[[-79.30503819952946,43.66916300886558]]}},{"type":"Feature","properties":{"_id":22,"ADDRESS_POINT_ID":990940.0,"ADDRESS_NUMBER":"280","LINEAR_NAME_FULL":"Burnhamthorpe Rd","ADDRESS":"280 Burnhamthorpe Rd","MUNICIPALITY_NAME":"Etobicoke","CENTRELINE_ID":911274,"OBJECTID":2544120,"ID":42,"STATION":445,"YEAR_BUILD":1960,"WARD":2,"WARD_NAME":"Etobicoke Centre","TYPE_DESC":"Fire Station","PUBLIC_ED_OFFICE":" ","FIRE_PREV_OFFICE":" ","FIRE_OTHER":" "},"geometry":{"type":"MultiPoint","coordinates":[[-79.54510308321025,43.64934817811899]]}},{"type":"Feature","properties":{"_id":23,"ADDRESS_POINT_ID":8731578.0,"ADDRESS_NUMBER":"255","LINEAR_NAME_FULL":"Esther Shiner Blvd","ADDRESS":"255 Esther Shiner Blvd","MUNICIPALITY_NAME":"North York","CENTRELINE_ID":30005958,"OBJECTID":2607109,"ID":39,"STATION":116,"YEAR_BUILD":2007,"WARD":17,"WARD_NAME":"Don Valley North","TYPE_DESC":"Fire Station","PUBLIC_ED_OFFICE":" ","FIRE_PREV_OFFICE":"Fire Prevention Office (E, N)","FIRE_OTHER":"Division Commander / Platoon Chiefs"},"geometry":{"type":"MultiPoint","coordinates":[[-79.36506365548586,43.76914594362765]]}},{"type":"Feature","properties":{"_id":24,"ADDRESS_POINT_ID":8100063.0,"ADDRESS_NUMBER":"155","LINEAR_NAME_FULL":"The East Mall","ADDRESS":"155 The East Mall","MUNICIPALITY_NAME":"Etobicoke","CENTRELINE_ID":8100062,"OBJECTID":2609714,"ID":41,"STATION":432,"YEAR_BUILD":1980,"WARD":3,"WARD_NAME":"Etobicoke-Lakeshore","TYPE_DESC":"Fire Station","PUBLIC_ED_OFFICE":" ","FIRE_PREV_OFFICE":" ","FIRE_OTHER":" "},"geometry":{"type":"MultiPoint","coordinates":[[-79.54935369524489,43.623341011491526]]}},{"type":"Feature","properties":{"_id":25,"ADDRESS_POINT_ID":5464019.0,"ADDRESS_NUMBER":"3600","LINEAR_NAME_FULL":"Danforth Ave","ADDRESS":"3600 Danforth Ave","MUNICIPALITY_NAME":"Scarborough","CENTRELINE_ID":5464008,"OBJECTID":2642292,"ID":6,"STATION":225,"YEAR_BUILD":1998,"WARD":20,"WARD_NAME":"Scarborough Southwest","TYPE_DESC":"Fire Station","PUBLIC_ED_OFFICE":" ","FIRE_PREV_OFFICE":" ","FIRE_OTHER":" "},"geometry":{"type":"MultiPoint","coordinates":[[-79.26849460456525,43.69591687317466]]}},{"type":"Feature","properties":{"_id":26,"ADDRESS_POINT_ID":9655766.0,"ADDRESS_NUMBER":"2120","LINEAR_NAME_FULL":"Kipling Ave","ADDRESS":"2120 Kipling Ave","MUNICIPALITY_NAME":"Etobicoke","CENTRELINE_ID":9655751,"OBJECTID":2750607,"ID":45,"STATION":415,"YEAR_BUILD":1954,"WARD":1,"WARD_NAME":"Etobicoke North","TYPE_DESC":"Fire Station","PUBLIC_ED_OFFICE":" ","FIRE_PREV_OFFICE":" ","FIRE_OTHER":" "},"geometry":{"type":"MultiPoint","coordinates":[[-79.5703767704744,43.717877208056265]]}},{"type":"Feature","properties":{"_id":27,"ADDRESS_POINT_ID":560567.0,"ADDRESS_NUMBER":"700","LINEAR_NAME_FULL":"Seneca Hill Dr","ADDRESS":"700 Seneca Hill Dr","MUNICIPALITY_NAME":"North York","CENTRELINE_ID":436832,"OBJECTID":2788036,"ID":51,"STATION":113,"YEAR_BUILD":1969,"WARD":17,"WARD_NAME":"Don Valley North","TYPE_DESC":"Fire Station","PUBLIC_ED_OFFICE":" ","FIRE_PREV_OFFICE":" ","FIRE_OTHER":" "},"geometry":{"type":"MultiPoint","coordinates":[[-79.35083300207528,43.793177934307614]]}},{"type":"Feature","properties":{"_id":28,"ADDRESS_POINT_ID":20035267.0,"ADDRESS_NUMBER":"1505","LINEAR_NAME_FULL":"Lawrence Ave W","ADDRESS":"1505 Lawrence Ave W","MUNICIPALITY_NAME":"North York","CENTRELINE_ID":9796670,"OBJECTID":2829802,"ID":67,"STATION":133,"YEAR_BUILD":1962,"WARD":5,"WARD_NAME":"York South-Weston","TYPE_DESC":"Fire Station","PUBLIC_ED_OFFICE":" ","FIRE_PREV_OFFICE":" ","FIRE_OTHER":" "},"geometry":{"type":"MultiPoint","coordinates":[[-79.48218487915105,43.70718484802335]]}},{"type":"Feature","properties":{"_id":29,"ADDRESS_POINT_ID":9531843.0,"ADDRESS_NUMBER":"6","LINEAR_NAME_FULL":"Lambton Ave","ADDRESS":"6 Lambton Ave","MUNICIPALITY_NAME":"York","CENTRELINE_ID":9531839,"OBJECTID":2973435,"ID":31,"STATION":421,"YEAR_BUILD":1956,"WARD":5,"WARD_NAME":"York South-Weston","TYPE_DESC":"Fire Station","PUBLIC_ED_OFFICE":" ","FIRE_PREV_OFFICE":" ","FIRE_OTHER":" "},"geometry":{"type":"MultiPoint","coordinates":[[-79.48530162768527,43.684300394646705]]}},{"type":"Feature","properties":{"_id":30,"ADDRESS_POINT_ID":531061.0,"ADDRESS_NUMBER":"2753","LINEAR_NAME_FULL":"Jane St","ADDRESS":"2753 Jane St","MUNICIPALITY_NAME":"North York","CENTRELINE_ID":442012,"OBJECTID":2982185,"ID":63,"STATION":142,"YEAR_BUILD":1982,"WARD":7,"WARD_NAME":"Humber River-Black Creek","TYPE_DESC":"Fire Station","PUBLIC_ED_OFFICE":" ","FIRE_PREV_OFFICE":" ","FIRE_OTHER":" "},"geometry":{"type":"MultiPoint","coordinates":[[-79.51437064341629,43.74598270620593]]}},{"type":"Feature","properties":{"_id":31,"ADDRESS_POINT_ID":1009102.0,"ADDRESS_NUMBER":"1724","LINEAR_NAME_FULL":"Islington Ave","ADDRESS":"1724 Islington Ave","MUNICIPALITY_NAME":"Etobicoke","CENTRELINE_ID":30023253,"OBJECTID":3035181,"ID":47,"STATION":443,"YEAR_BUILD":1958,"WARD":2,"WARD_NAME":"Etobicoke Centre","TYPE_DESC":"Fire Station","PUBLIC_ED_OFFICE":" ","FIRE_PREV_OFFICE":" ","FIRE_OTHER":" "},"geometry":{"type":"MultiPoint","coordinates":[[-79.53855364490265,43.67807101554298]]}},{"type":"Feature","properties":{"_id":32,"ADDRESS_POINT_ID":4723662.0,"ADDRESS_NUMBER":"2220","LINEAR_NAME_FULL":"Jane St","ADDRESS":"2220 Jane St","MUNICIPALITY_NAME":"North York","CENTRELINE_ID":30006795,"OBJECTID":3072600,"ID":64,"STATION":146,"YEAR_BUILD":1956,"WARD":7,"WARD_NAME":"Humber River-Black Creek","TYPE_DESC":"Fire Station","PUBLIC_ED_OFFICE":" ","FIRE_PREV_OFFICE":" ","FIRE_OTHER":" "},"geometry":{"type":"MultiPoint","coordinates":[[-79.50977609677243,43.72357286147922]]}},{"type":"Feature","properties":{"_id":33,"ADDRESS_POINT_ID":9741247.0,"ADDRESS_NUMBER":"1009","LINEAR_NAME_FULL":"Sheppard Ave W","ADDRESS":"1009 Sheppard Ave W","MUNICIPALITY_NAME":"North York","CENTRELINE_ID":9741246,"OBJECTID":3083829,"ID":59,"STATION":143,"YEAR_BUILD":1956,"WARD":6,"WARD_NAME":"York Centre","TYPE_DESC":"Fire Station","PUBLIC_ED_OFFICE":" ","FIRE_PREV_OFFICE":" ","FIRE_OTHER":" "},"geometry":{"type":"MultiPoint","coordinates":[[-79.45972679670444,43.75065414442076]]}},{"type":"Feature","properties":{"_id":34,"ADDRESS_POINT_ID":308625.0,"ADDRESS_NUMBER":"1600","LINEAR_NAME_FULL":"Birchmount Rd","ADDRESS":"1600 Birchmount Rd","MUNICIPALITY_NAME":"Scarborough","CENTRELINE_ID":108988,"OBJECTID":3093030,"ID":72,"STATION":245,"YEAR_BUILD":1960,"WARD":21,"WARD_NAME":"Scarborough Centre","TYPE_DESC":"Fire Station","PUBLIC_ED_OFFICE":" ","FIRE_PREV_OFFICE":" ","FIRE_OTHER":" "},"geometry":{"type":"MultiPoint","coordinates":[[-79.29151840526467,43.76269182180581]]}},{"type":"Feature","properties":{"_id":35,"ADDRESS_POINT_ID":396134.0,"ADDRESS_NUMBER":"3325","LINEAR_NAME_FULL":"Warden Ave","ADDRESS":"3325 Warden Ave","MUNICIPALITY_NAME":"Scarborough","CENTRELINE_ID":14663726,"OBJECTID":3174616,"ID":50,"STATION":241,"YEAR_BUILD":1980,"WARD":22,"WARD_NAME":"Scarborough-Agincourt","TYPE_DESC":"Fire Station","PUBLIC_ED_OFFICE":" ","FIRE_PREV_OFFICE":" ","FIRE_OTHER":" "},"geometry":{"type":"MultiPoint","coordinates":[[-79.3238025417745,43.81404197971089]]}},{"type":"Feature","properties":{"_id":36,"ADDRESS_POINT_ID":6275804.0,"ADDRESS_NUMBER":"20","LINEAR_NAME_FULL":"Beffort Rd","ADDRESS":"20 Beffort Rd","MUNICIPALITY_NAME":"North York","CENTRELINE_ID":6275627,"OBJECTID":3186765,"ID":60,"STATION":145,"YEAR_BUILD":1989,"WARD":6,"WARD_NAME":"York Centre","TYPE_DESC":"Fire Station","PUBLIC_ED_OFFICE":" ","FIRE_PREV_OFFICE":"Fire Prevention Office (N)","FIRE_OTHER":" "},"geometry":{"type":"MultiPoint","coordinates":[[-79.46003220958877,43.73475551314084]]}},{"type":"Feature","properties":{"_id":37,"ADDRESS_POINT_ID":20039471.0,"ADDRESS_NUMBER":"25","LINEAR_NAME_FULL":"Old Eglinton Ave","ADDRESS":"25 Old Eglinton Ave","MUNICIPALITY_NAME":"North York","CENTRELINE_ID":11517219,"OBJECTID":3217082,"ID":28,"STATION":null,"YEAR_BUILD":2006,"WARD":16,"WARD_NAME":"Don Valley East","TYPE_DESC":"Ops Training","PUBLIC_ED_OFFICE":" ","FIRE_PREV_OFFICE":" ","FIRE_OTHER":"Fire Burn House & Training Dome"},"geometry":{"type":"MultiPoint","coordinates":[[-79.31804031826597,43.72326969306873]]}},{"type":"Feature","properties":{"_id":38,"ADDRESS_POINT_ID":6686397.0,"ADDRESS_NUMBER":"200","LINEAR_NAME_FULL":"Bermondsey Rd","ADDRESS":"200 Bermondsey Rd","MUNICIPALITY_NAME":"North York","CENTRELINE_ID":6682365,"OBJECTID":3217085,"ID":76,"STATION":235,"YEAR_BUILD":1960,"WARD":16,"WARD_NAME":"Don Valley East","TYPE_DESC":"Fire Station","PUBLIC_ED_OFFICE":" ","FIRE_PREV_OFFICE":" ","FIRE_OTHER":"Special Operations Training Centre"},"geometry":{"type":"MultiPoint","coordinates":[[-79.31493442307915,43.72425342111256]]}},{"type":"Feature","properties":{"_id":39,"ADDRESS_POINT_ID":9796836.0,"ADDRESS_NUMBER":"2015","LINEAR_NAME_FULL":"Lawrence Ave W","ADDRESS":"2015 Lawrence Ave W","MUNICIPALITY_NAME":"York","CENTRELINE_ID":9796835,"OBJECTID":3234576,"ID":46,"STATION":442,"YEAR_BUILD":1990,"WARD":5,"WARD_NAME":"York South-Weston","TYPE_DESC":"Fire Station","PUBLIC_ED_OFFICE":" ","FIRE_PREV_OFFICE":"Fire Prevention Office (W)","FIRE_OTHER":"Division Commander / Platoon Chiefs"},"geometry":{"type":"MultiPoint","coordinates":[[-79.51238441086845,43.700598701163585]]}},{"type":"Feature","properties":{"_id":40,"ADDRESS_POINT_ID":13497504.0,"ADDRESS_NUMBER":"75","LINEAR_NAME_FULL":"Toryork Dr","ADDRESS":"75 Toryork Dr","MUNICIPALITY_NAME":"North York","CENTRELINE_ID":10367893,"OBJECTID":3301795,"ID":62,"STATION":411,"YEAR_BUILD":1964,"WARD":7,"WARD_NAME":"Humber River-Black Creek","TYPE_DESC":"Fire Station","PUBLIC_ED_OFFICE":" ","FIRE_PREV_OFFICE":" ","FIRE_OTHER":"Emergency Management, Health & Safety (EMH&S) /Toryork Yard - Fire Training Tower"},"geometry":{"type":"MultiPoint","coordinates":[[-79.54916543469865,43.75525826208755]]}},{"type":"Feature","properties":{"_id":41,"ADDRESS_POINT_ID":9313399.0,"ADDRESS_NUMBER":"5700","LINEAR_NAME_FULL":"Bathurst St","ADDRESS":"5700 Bathurst St","MUNICIPALITY_NAME":"North York","CENTRELINE_ID":14661127,"OBJECTID":3311629,"ID":52,"STATION":112,"YEAR_BUILD":1978,"WARD":6,"WARD_NAME":"York Centre","TYPE_DESC":"Fire Station","PUBLIC_ED_OFFICE":" ","FIRE_PREV_OFFICE":" ","FIRE_OTHER":"EMS Section - North Training Centre"},"geometry":{"type":"MultiPoint","coordinates":[[-79.44428604631182,43.77628552152056]]}},{"type":"Feature","properties":{"_id":42,"ADDRESS_POINT_ID":9602654.0,"ADDRESS_NUMBER":"3300","LINEAR_NAME_FULL":"Bayview Ave","ADDRESS":"3300 Bayview Ave","MUNICIPALITY_NAME":"North York","CENTRELINE_ID":20050112,"OBJECTID":3311708,"ID":58,"STATION":111,"YEAR_BUILD":1979,"WARD":18,"WARD_NAME":"Willowdale","TYPE_DESC":"Fire Station","PUBLIC_ED_OFFICE":" ","FIRE_PREV_OFFICE":" ","FIRE_OTHER":" "},"geometry":{"type":"MultiPoint","coordinates":[[-79.39365587991135,43.79012700729375]]}},{"type":"Feature","properties":{"_id":43,"ADDRESS_POINT_ID":13498086.0,"ADDRESS_NUMBER":"12","LINEAR_NAME_FULL":"Canterbury Pl","ADDRESS":"12 Canterbury Pl","MUNICIPALITY_NAME":"North York","CENTRELINE_ID":438636,"OBJECTID":3311726,"ID":53,"STATION":114,"YEAR_BUILD":1989,"WARD":18,"WARD_NAME":"Willowdale","TYPE_DESC":"Fire Station","PUBLIC_ED_OFFICE":" ","FIRE_PREV_OFFICE":" ","FIRE_OTHER":" "},"geometry":{"type":"MultiPoint","coordinates":[[-79.41535477493491,43.7726358500692]]}},{"type":"Feature","properties":{"_id":44,"ADDRESS_POINT_ID":14069050.0,"ADDRESS_NUMBER":"339","LINEAR_NAME_FULL":"Queens Quay W","ADDRESS":"339 Queens Quay W","MUNICIPALITY_NAME":"former Toronto","CENTRELINE_ID":10223459,"OBJECTID":4061713,"ID":16,"STATION":334,"YEAR_BUILD":2000,"WARD":10,"WARD_NAME":"Spadina-Fort York","TYPE_DESC":"Fire Station","PUBLIC_ED_OFFICE":" ","FIRE_PREV_OFFICE":" ","FIRE_OTHER":" "},"geometry":{"type":"MultiPoint","coordinates":[[-79.38861301635802,43.63769031093413]]}},{"type":"Feature","properties":{"_id":45,"ADDRESS_POINT_ID":14120199.0,"ADDRESS_NUMBER":"441","LINEAR_NAME_FULL":"Bloor St E","ADDRESS":"441 Bloor St E","MUNICIPALITY_NAME":"former Toronto","CENTRELINE_ID":1141663,"OBJECTID":4164722,"ID":23,"STATION":313,"YEAR_BUILD":1967,"WARD":13,"WARD_NAME":"Toronto Centre","TYPE_DESC":"Fire Station","PUBLIC_ED_OFFICE":" ","FIRE_PREV_OFFICE":" ","FIRE_OTHER":" "},"geometry":{"type":"MultiPoint","coordinates":[[-79.37556405277462,43.67209505575769]]}},{"type":"Feature","properties":{"_id":46,"ADDRESS_POINT_ID":14076406.0,"ADDRESS_NUMBER":"235","LINEAR_NAME_FULL":"Cibola Ave","ADDRESS":"235 Cibola Ave","MUNICIPALITY_NAME":"former Toronto","CENTRELINE_ID":30086097,"OBJECTID":4173463,"ID":3,"STATION":335,"YEAR_BUILD":1995,"WARD":10,"WARD_NAME":"Spadina-Fort York","TYPE_DESC":"Fire Station","PUBLIC_ED_OFFICE":" ","FIRE_PREV_OFFICE":" ","FIRE_OTHER":" "},"geometry":{"type":"MultiPoint","coordinates":[[-79.35907450522743,43.62540074601082]]}},{"type":"Feature","properties":{"_id":47,"ADDRESS_POINT_ID":8168331.0,"ADDRESS_NUMBER":"325","LINEAR_NAME_FULL":"Chaplin Cres","ADDRESS":"325 Chaplin Cres","MUNICIPALITY_NAME":"former Toronto","CENTRELINE_ID":8166572,"OBJECTID":4271268,"ID":33,"STATION":135,"YEAR_BUILD":2014,"WARD":8,"WARD_NAME":"Eglinton-Lawrence","TYPE_DESC":"Fire Station","PUBLIC_ED_OFFICE":" ","FIRE_PREV_OFFICE":" ","FIRE_OTHER":" "},"geometry":{"type":"MultiPoint","coordinates":[[-79.41879411577635,43.703124459941236]]}},{"type":"Feature","properties":{"_id":48,"ADDRESS_POINT_ID":487657.0,"ADDRESS_NUMBER":"2545","LINEAR_NAME_FULL":"Bayview Ave","ADDRESS":"2545 Bayview Ave","MUNICIPALITY_NAME":"North York","CENTRELINE_ID":30107421,"OBJECTID":4299669,"ID":54,"STATION":122,"YEAR_BUILD":1959,"WARD":15,"WARD_NAME":"Don Valley West","TYPE_DESC":"Fire Station","PUBLIC_ED_OFFICE":" ","FIRE_PREV_OFFICE":" ","FIRE_OTHER":" "},"geometry":{"type":"MultiPoint","coordinates":[[-79.38372595896112,43.74864461500859]]}},{"type":"Feature","properties":{"_id":49,"ADDRESS_POINT_ID":9487007.0,"ADDRESS_NUMBER":"2733","LINEAR_NAME_FULL":"Brimley Rd","ADDRESS":"2733 Brimley Rd","MUNICIPALITY_NAME":"Scarborough","CENTRELINE_ID":30108578,"OBJECTID":4308527,"ID":84,"STATION":242,"YEAR_BUILD":1975,"WARD":23,"WARD_NAME":"Scarborough North","TYPE_DESC":"Fire Station","PUBLIC_ED_OFFICE":" ","FIRE_PREV_OFFICE":" ","FIRE_OTHER":" "},"geometry":{"type":"MultiPoint","coordinates":[[-79.27725628028892,43.80691964458345]]}},{"type":"Feature","properties":{"_id":50,"ADDRESS_POINT_ID":12491266.0,"ADDRESS_NUMBER":"1109","LINEAR_NAME_FULL":"Leslie St","ADDRESS":"1109 Leslie St","MUNICIPALITY_NAME":"North York","CENTRELINE_ID":30112872,"OBJECTID":4324089,"ID":26,"STATION":125,"YEAR_BUILD":1985,"WARD":16,"WARD_NAME":"Don Valley East","TYPE_DESC":"Fire Station","PUBLIC_ED_OFFICE":" ","FIRE_PREV_OFFICE":" ","FIRE_OTHER":" "},"geometry":{"type":"MultiPoint","coordinates":[[-79.3491121871106,43.72113579469095]]}},{"type":"Feature","properties":{"_id":51,"ADDRESS_POINT_ID":998837.0,"ADDRESS_NUMBER":"130","LINEAR_NAME_FULL":"Eighth St","ADDRESS":"130 Eighth St","MUNICIPALITY_NAME":"Etobicoke","CENTRELINE_ID":30118412,"OBJECTID":4352480,"ID":2,"STATION":435,"YEAR_BUILD":1920,"WARD":3,"WARD_NAME":"Etobicoke-Lakeshore","TYPE_DESC":"Fire Station","PUBLIC_ED_OFFICE":" ","FIRE_PREV_OFFICE":" ","FIRE_OTHER":" "},"geometry":{"type":"MultiPoint","coordinates":[[-79.50696999339536,43.60111851707651]]}},{"type":"Feature","properties":{"_id":52,"ADDRESS_POINT_ID":3890947.0,"ADDRESS_NUMBER":"231","LINEAR_NAME_FULL":"McRae Dr","ADDRESS":"231 McRae Dr","MUNICIPALITY_NAME":"East York","CENTRELINE_ID":3890945,"OBJECTID":4400109,"ID":25,"STATION":321,"YEAR_BUILD":1946,"WARD":15,"WARD_NAME":"Don Valley West","TYPE_DESC":"Fire Station","PUBLIC_ED_OFFICE":" ","FIRE_PREV_OFFICE":"Fire Prevention Office (N)","FIRE_OTHER":" "},"geometry":{"type":"MultiPoint","coordinates":[[-79.3646982931217,43.70871401084624]]}},{"type":"Feature","properties":{"_id":53,"ADDRESS_POINT_ID":8292449.0,"ADDRESS_NUMBER":"59","LINEAR_NAME_FULL":"Curlew Dr","ADDRESS":"59 Curlew Dr","MUNICIPALITY_NAME":"North York","CENTRELINE_ID":8292440,"OBJECTID":4422335,"ID":75,"STATION":233,"YEAR_BUILD":1995,"WARD":16,"WARD_NAME":"Don Valley East","TYPE_DESC":"Fire Station","PUBLIC_ED_OFFICE":"None","FIRE_PREV_OFFICE":"Fire Prevention Office","FIRE_OTHER":"FP Special Event Plans and Projects / Quality Assurance / Legal"},"geometry":{"type":"MultiPoint","coordinates":[[-79.3143827967515,43.74391817294652]]}},{"type":"Feature","properties":{"_id":54,"ADDRESS_POINT_ID":30013624.0,"ADDRESS_NUMBER":"4100","LINEAR_NAME_FULL":"Keele St","ADDRESS":"4100 Keele St","MUNICIPALITY_NAME":"North York","CENTRELINE_ID":30127036,"OBJECTID":4425852,"ID":61,"STATION":141,"YEAR_BUILD":2011,"WARD":7,"WARD_NAME":"Humber River-Black Creek","TYPE_DESC":"Fire Station","PUBLIC_ED_OFFICE":" ","FIRE_PREV_OFFICE":"Fire Prevention Office (N)","FIRE_OTHER":" "},"geometry":{"type":"MultiPoint","coordinates":[[-79.49272359460772,43.76682151043532]]}},{"type":"Feature","properties":{"_id":55,"ADDRESS_POINT_ID":6738444.0,"ADDRESS_NUMBER":"3","LINEAR_NAME_FULL":"Lunness Rd","ADDRESS":"3 Lunness Rd","MUNICIPALITY_NAME":"Etobicoke","CENTRELINE_ID":6738419,"OBJECTID":4495916,"ID":40,"STATION":434,"YEAR_BUILD":1958,"WARD":3,"WARD_NAME":"Etobicoke-Lakeshore","TYPE_DESC":"Fire Station","PUBLIC_ED_OFFICE":" ","FIRE_PREV_OFFICE":" ","FIRE_OTHER":" "},"geometry":{"type":"MultiPoint","coordinates":[[-79.54398894064038,43.6025703358919]]}},{"type":"Feature","properties":{"_id":56,"ADDRESS_POINT_ID":14076681.0,"ADDRESS_NUMBER":"30","LINEAR_NAME_FULL":"Knox Ave","ADDRESS":"30 Knox Ave","MUNICIPALITY_NAME":"former Toronto","CENTRELINE_ID":30021411,"OBJECTID":4501108,"ID":20,"STATION":326,"YEAR_BUILD":1980,"WARD":14,"WARD_NAME":"Toronto-Danforth","TYPE_DESC":"Fire Station","PUBLIC_ED_OFFICE":" ","FIRE_PREV_OFFICE":" ","FIRE_OTHER":"Fire Control Tower Building"},"geometry":{"type":"MultiPoint","coordinates":[[-79.32500729161569,43.66153875942057]]}},{"type":"Feature","properties":{"_id":57,"ADDRESS_POINT_ID":792196.0,"ADDRESS_NUMBER":"83","LINEAR_NAME_FULL":"Deforest Rd","ADDRESS":"83 Deforest Rd","MUNICIPALITY_NAME":"former Toronto","CENTRELINE_ID":1146026,"OBJECTID":4520761,"ID":19,"STATION":425,"YEAR_BUILD":1964,"WARD":4,"WARD_NAME":"Parkdale-High Park","TYPE_DESC":"Fire Station","PUBLIC_ED_OFFICE":" ","FIRE_PREV_OFFICE":" ","FIRE_OTHER":" "},"geometry":{"type":"MultiPoint","coordinates":[[-79.47805882881508,43.647987023873846]]}},{"type":"Feature","properties":{"_id":58,"ADDRESS_POINT_ID":7027887.0,"ADDRESS_NUMBER":"590","LINEAR_NAME_FULL":"Jane St","ADDRESS":"590 Jane St","MUNICIPALITY_NAME":"York","CENTRELINE_ID":20004277,"OBJECTID":4528054,"ID":48,"STATION":422,"YEAR_BUILD":1965,"WARD":4,"WARD_NAME":"Parkdale-High Park","TYPE_DESC":"Fire Station","PUBLIC_ED_OFFICE":" ","FIRE_PREV_OFFICE":" ","FIRE_OTHER":" "},"geometry":{"type":"MultiPoint","coordinates":[[-79.49095392555208,43.66435015134867]]}},{"type":"Feature","properties":{"_id":59,"ADDRESS_POINT_ID":13497616.0,"ADDRESS_NUMBER":"90","LINEAR_NAME_FULL":"Quebec St","ADDRESS":"90 Quebec St","MUNICIPALITY_NAME":"former Toronto","CENTRELINE_ID":30131680,"OBJECTID":4531087,"ID":69,"STATION":346,"YEAR_BUILD":1912,"WARD":10,"WARD_NAME":"Spadina-Fort York","TYPE_DESC":"Fire Station","PUBLIC_ED_OFFICE":" ","FIRE_PREV_OFFICE":"None","FIRE_OTHER":" "},"geometry":{"type":"MultiPoint","coordinates":[[-79.42132972699531,43.63367698401231]]}},{"type":"Feature","properties":{"_id":60,"ADDRESS_POINT_ID":6294642.0,"ADDRESS_NUMBER":"87","LINEAR_NAME_FULL":"Main St","ADDRESS":"87 Main St","MUNICIPALITY_NAME":"former Toronto","CENTRELINE_ID":1140025,"OBJECTID":4553689,"ID":8,"STATION":226,"YEAR_BUILD":1910,"WARD":19,"WARD_NAME":"Beaches-East York","TYPE_DESC":"Fire Station","PUBLIC_ED_OFFICE":" ","FIRE_PREV_OFFICE":" ","FIRE_OTHER":" "},"geometry":{"type":"MultiPoint","coordinates":[[-79.29906526593534,43.68192334099236]]}},{"type":"Feature","properties":{"_id":61,"ADDRESS_POINT_ID":354673.0,"ADDRESS_NUMBER":"5318","LINEAR_NAME_FULL":"Lawrence Ave E","ADDRESS":"5318 Lawrence Ave E","MUNICIPALITY_NAME":"Scarborough","CENTRELINE_ID":107237,"OBJECTID":4597878,"ID":78,"STATION":215,"YEAR_BUILD":1974,"WARD":25,"WARD_NAME":"Scarborough-Rouge Park","TYPE_DESC":"Fire Station","PUBLIC_ED_OFFICE":" ","FIRE_PREV_OFFICE":" ","FIRE_OTHER":" "},"geometry":{"type":"MultiPoint","coordinates":[[-79.14806589221874,43.77739193506365]]}},{"type":"Feature","properties":{"_id":62,"ADDRESS_POINT_ID":7762642.0,"ADDRESS_NUMBER":"12","LINEAR_NAME_FULL":"Grosvenor St","ADDRESS":"12 Grosvenor St","MUNICIPALITY_NAME":"former Toronto","CENTRELINE_ID":14673186,"OBJECTID":4610448,"ID":13,"STATION":314,"YEAR_BUILD":1939,"WARD":13,"WARD_NAME":"Toronto Centre","TYPE_DESC":"Fire Station","PUBLIC_ED_OFFICE":" ","FIRE_PREV_OFFICE":" ","FIRE_OTHER":" "},"geometry":{"type":"MultiPoint","coordinates":[[-79.38466176846124,43.663057420183144]]}},{"type":"Feature","properties":{"_id":63,"ADDRESS_POINT_ID":30055401.0,"ADDRESS_NUMBER":"2945","LINEAR_NAME_FULL":"Keele St","ADDRESS":"2945 Keele St","MUNICIPALITY_NAME":"North York","CENTRELINE_ID":30110004,"OBJECTID":4635214,"ID":27,"STATION":144,"YEAR_BUILD":2022,"WARD":6,"WARD_NAME":"York Centre","TYPE_DESC":"Fire Station","PUBLIC_ED_OFFICE":" ","FIRE_PREV_OFFICE":"None","FIRE_OTHER":"Fire Investigations"},"geometry":{"type":"MultiPoint","coordinates":[[-79.48331573937485,43.735237637205344]]}},{"type":"Feature","properties":{"_id":64,"ADDRESS_POINT_ID":6044964.0,"ADDRESS_NUMBER":"947","LINEAR_NAME_FULL":"Martin Grove Rd","ADDRESS":"947 Martin Grove Rd","MUNICIPALITY_NAME":"Etobicoke","CENTRELINE_ID":6044958,"OBJECTID":4653861,"ID":44,"STATION":441,"YEAR_BUILD":1964,"WARD":1,"WARD_NAME":"Etobicoke North","TYPE_DESC":"Fire Station","PUBLIC_ED_OFFICE":" ","FIRE_PREV_OFFICE":" ","FIRE_OTHER":"West Training Centre / Fire Training Tower"},"geometry":{"type":"MultiPoint","coordinates":[[-79.57191964891244,43.69496046639946]]}},{"type":"Feature","properties":{"_id":65,"ADDRESS_POINT_ID":19832.0,"ADDRESS_NUMBER":"256","LINEAR_NAME_FULL":"Cosburn Ave","ADDRESS":"256 Cosburn Ave","MUNICIPALITY_NAME":"East York","CENTRELINE_ID":14646506,"OBJECTID":4659390,"ID":24,"STATION":322,"YEAR_BUILD":1994,"WARD":14,"WARD_NAME":"Toronto-Danforth","TYPE_DESC":"Fire Station","PUBLIC_ED_OFFICE":" ","FIRE_PREV_OFFICE":" ","FIRE_OTHER":"None"},"geometry":{"type":"MultiPoint","coordinates":[[-79.34234371990777,43.690986162239845]]}},{"type":"Feature","properties":{"_id":66,"ADDRESS_POINT_ID":6942838.0,"ADDRESS_NUMBER":"308","LINEAR_NAME_FULL":"Prince Edward Dr S","ADDRESS":"308 Prince Edward Dr S","MUNICIPALITY_NAME":"Etobicoke","CENTRELINE_ID":6942837,"OBJECTID":4681481,"ID":null,"STATION":431,"YEAR_BUILD":1958,"WARD":3,"WARD_NAME":"Etobicoke-Lakeshore","TYPE_DESC":"Fire Station","PUBLIC_ED_OFFICE":" ","FIRE_PREV_OFFICE":" ","FIRE_OTHER":" "},"geometry":{"type":"MultiPoint","coordinates":[[-79.50484704382086,43.6464360660255]]}},{"type":"Feature","properties":{"_id":67,"ADDRESS_POINT_ID":11533910.0,"ADDRESS_NUMBER":"7","LINEAR_NAME_FULL":"Lapsley Rd","ADDRESS":"7 Lapsley Rd","MUNICIPALITY_NAME":"Scarborough","CENTRELINE_ID":11533909,"OBJECTID":4683861,"ID":81,"STATION":213,"YEAR_BUILD":1974,"WARD":23,"WARD_NAME":"Scarborough North","TYPE_DESC":"Fire Station","PUBLIC_ED_OFFICE":" ","FIRE_PREV_OFFICE":" ","FIRE_OTHER":" "},"geometry":{"type":"MultiPoint","coordinates":[[-79.22596190861587,43.795406608873364]]}},{"type":"Feature","properties":{"_id":68,"ADDRESS_POINT_ID":7583839.0,"ADDRESS_NUMBER":"358","LINEAR_NAME_FULL":"Keele St","ADDRESS":"358 Keele St","MUNICIPALITY_NAME":"former Toronto","CENTRELINE_ID":14014794,"OBJECTID":4817127,"ID":29,"STATION":423,"YEAR_BUILD":1954,"WARD":4,"WARD_NAME":"Parkdale-High Park","TYPE_DESC":"Fire Station","PUBLIC_ED_OFFICE":" ","FIRE_PREV_OFFICE":"Fire Prevention Office (W)","FIRE_OTHER":" "},"geometry":{"type":"MultiPoint","coordinates":[[-79.46475396081073,43.66474178259143]]}},{"type":"Feature","properties":{"_id":69,"ADDRESS_POINT_ID":10411391.0,"ADDRESS_NUMBER":"1285","LINEAR_NAME_FULL":"Dufferin St","ADDRESS":"1285 Dufferin St","MUNICIPALITY_NAME":"former Toronto","CENTRELINE_ID":30146985,"OBJECTID":4875124,"ID":11,"STATION":345,"YEAR_BUILD":1963,"WARD":9,"WARD_NAME":"Davenport","TYPE_DESC":"Fire Station","PUBLIC_ED_OFFICE":" ","FIRE_PREV_OFFICE":" ","FIRE_OTHER":" "},"geometry":{"type":"MultiPoint","coordinates":[[-79.43812588534881,43.66732775258845]]}},{"type":"Feature","properties":{"_id":70,"ADDRESS_POINT_ID":764237.0,"ADDRESS_NUMBER":"106","LINEAR_NAME_FULL":"Ascot Ave","ADDRESS":"106 Ascot Ave","MUNICIPALITY_NAME":"former Toronto","CENTRELINE_ID":1140634,"OBJECTID":4895522,"ID":30,"STATION":342,"YEAR_BUILD":1915,"WARD":9,"WARD_NAME":"Davenport","TYPE_DESC":"Fire Station","PUBLIC_ED_OFFICE":" ","FIRE_PREV_OFFICE":" ","FIRE_OTHER":" "},"geometry":{"type":"MultiPoint","coordinates":[[-79.44862626046506,43.67936613193911]]}},{"type":"Feature","properties":{"_id":71,"ADDRESS_POINT_ID":6522583.0,"ADDRESS_NUMBER":"33","LINEAR_NAME_FULL":"Claremont St","ADDRESS":"33 Claremont St","MUNICIPALITY_NAME":"former Toronto","CENTRELINE_ID":1146109,"OBJECTID":4899227,"ID":15,"STATION":331,"YEAR_BUILD":1968,"WARD":10,"WARD_NAME":"Spadina-Fort York","TYPE_DESC":"Fire Station","PUBLIC_ED_OFFICE":" ","FIRE_PREV_OFFICE":" ","FIRE_OTHER":" "},"geometry":{"type":"MultiPoint","coordinates":[[-79.40977375240172,43.64733611937424]]}},{"type":"Feature","properties":{"_id":72,"ADDRESS_POINT_ID":7974292.0,"ADDRESS_NUMBER":"240","LINEAR_NAME_FULL":"Howland Ave","ADDRESS":"240 Howland Ave","MUNICIPALITY_NAME":"former Toronto","CENTRELINE_ID":30017353,"OBJECTID":4922536,"ID":38,"STATION":344,"YEAR_BUILD":1910,"WARD":11,"WARD_NAME":"University-Rosedale","TYPE_DESC":"Fire Station","PUBLIC_ED_OFFICE":" ","FIRE_PREV_OFFICE":"Fire Prevention Office (S)","FIRE_OTHER":" "},"geometry":{"type":"MultiPoint","coordinates":[[-79.41182414029672,43.67296222716639]]}},{"type":"Feature","properties":{"_id":73,"ADDRESS_POINT_ID":8677247.0,"ADDRESS_NUMBER":"34","LINEAR_NAME_FULL":"Yorkville Ave","ADDRESS":"34 Yorkville Ave","MUNICIPALITY_NAME":"former Toronto","CENTRELINE_ID":14014191,"OBJECTID":4926995,"ID":37,"STATION":312,"YEAR_BUILD":1876,"WARD":11,"WARD_NAME":"University-Rosedale","TYPE_DESC":"Fire Station","PUBLIC_ED_OFFICE":" ","FIRE_PREV_OFFICE":" ","FIRE_OTHER":" "},"geometry":{"type":"MultiPoint","coordinates":[[-79.38892037955517,43.67187486127358]]}},{"type":"Feature","properties":{"_id":74,"ADDRESS_POINT_ID":2374883.0,"ADDRESS_NUMBER":"755","LINEAR_NAME_FULL":"Warden Ave","ADDRESS":"755 Warden Ave","MUNICIPALITY_NAME":"Scarborough","CENTRELINE_ID":8741020,"OBJECTID":4928967,"ID":5,"STATION":222,"YEAR_BUILD":1960,"WARD":20,"WARD_NAME":"Scarborough Southwest","TYPE_DESC":"Fire Station","PUBLIC_ED_OFFICE":" ","FIRE_PREV_OFFICE":" ","FIRE_OTHER":" "},"geometry":{"type":"MultiPoint","coordinates":[[-79.2840906320077,43.72039942742826]]}},{"type":"Feature","properties":{"_id":75,"ADDRESS_POINT_ID":819425.0,"ADDRESS_NUMBER":"65","LINEAR_NAME_FULL":"Hendrick Ave","ADDRESS":"65 Hendrick Ave","MUNICIPALITY_NAME":"former Toronto","CENTRELINE_ID":1140587,"OBJECTID":4938516,"ID":10,"STATION":343,"YEAR_BUILD":1962,"WARD":12,"WARD_NAME":"Toronto-St. Paul's","TYPE_DESC":"Fire Station","PUBLIC_ED_OFFICE":" ","FIRE_PREV_OFFICE":" ","FIRE_OTHER":" "},"geometry":{"type":"MultiPoint","coordinates":[[-79.43075215729337,43.6801051517752]]}},{"type":"Feature","properties":{"_id":76,"ADDRESS_POINT_ID":12763904.0,"ADDRESS_NUMBER":"260","LINEAR_NAME_FULL":"Adelaide St W","ADDRESS":"260 Adelaide St W","MUNICIPALITY_NAME":"former Toronto","CENTRELINE_ID":12763900,"OBJECTID":4947516,"ID":14,"STATION":332,"YEAR_BUILD":1971,"WARD":10,"WARD_NAME":"Spadina-Fort York","TYPE_DESC":"Fire Station","PUBLIC_ED_OFFICE":" ","FIRE_PREV_OFFICE":"Fire Prevention Office (S)","FIRE_OTHER":"Division Commander / Platoon Chiefs"},"geometry":{"type":"MultiPoint","coordinates":[[-79.38956419026319,43.648306533953104]]}},{"type":"Feature","properties":{"_id":77,"ADDRESS_POINT_ID":6661414.0,"ADDRESS_NUMBER":"207","LINEAR_NAME_FULL":"Front St E","ADDRESS":"207 Front St E","MUNICIPALITY_NAME":"former Toronto","CENTRELINE_ID":1145261,"OBJECTID":4986910,"ID":4,"STATION":333,"YEAR_BUILD":1970,"WARD":13,"WARD_NAME":"Toronto Centre","TYPE_DESC":"Fire Station","PUBLIC_ED_OFFICE":" ","FIRE_PREV_OFFICE":"Fire Prevention Office","FIRE_OTHER":"FP Special Event Plans and Projects"},"geometry":{"type":"MultiPoint","coordinates":[[-79.36615396903518,43.65052080797543]]}},{"type":"Feature","properties":{"_id":78,"ADDRESS_POINT_ID":808592.0,"ADDRESS_NUMBER":"840","LINEAR_NAME_FULL":"Gerrard St E","ADDRESS":"840 Gerrard St E","MUNICIPALITY_NAME":"former Toronto","CENTRELINE_ID":14024937,"OBJECTID":5011312,"ID":21,"STATION":324,"YEAR_BUILD":1931,"WARD":14,"WARD_NAME":"Toronto-Danforth","TYPE_DESC":"Fire Station","PUBLIC_ED_OFFICE":" ","FIRE_PREV_OFFICE":" ","FIRE_OTHER":" "},"geometry":{"type":"MultiPoint","coordinates":[[-79.34351818587716,43.667766681619774]]}},{"type":"Feature","properties":{"_id":79,"ADDRESS_POINT_ID":770042.0,"ADDRESS_NUMBER":"132","LINEAR_NAME_FULL":"Bellevue Ave","ADDRESS":"132 Bellevue Ave","MUNICIPALITY_NAME":"former Toronto","CENTRELINE_ID":30017518,"OBJECTID":5040045,"ID":12,"STATION":315,"YEAR_BUILD":1878,"WARD":11,"WARD_NAME":"University-Rosedale","TYPE_DESC":"Fire Station","PUBLIC_ED_OFFICE":" ","FIRE_PREV_OFFICE":" ","FIRE_OTHER":" "},"geometry":{"type":"MultiPoint","coordinates":[[-79.40478172527834,43.6568245964379]]}},{"type":"Feature","properties":{"_id":80,"ADDRESS_POINT_ID":6168242.0,"ADDRESS_NUMBER":"475","LINEAR_NAME_FULL":"Dundas St E","ADDRESS":"475 Dundas St E","MUNICIPALITY_NAME":"former Toronto","CENTRELINE_ID":6168241,"OBJECTID":5040857,"ID":22,"STATION":325,"YEAR_BUILD":1954,"WARD":13,"WARD_NAME":"Toronto Centre","TYPE_DESC":"Fire Station","PUBLIC_ED_OFFICE":" ","FIRE_PREV_OFFICE":" ","FIRE_OTHER":" "},"geometry":{"type":"MultiPoint","coordinates":[[-79.36485420222256,43.65937053407145]]}},{"type":"Feature","properties":{"_id":81,"ADDRESS_POINT_ID":843876.0,"ADDRESS_NUMBER":"16","LINEAR_NAME_FULL":"Montgomery Ave","ADDRESS":"16 Montgomery Ave","MUNICIPALITY_NAME":"former Toronto","CENTRELINE_ID":1138230,"OBJECTID":5046151,"ID":35,"STATION":134,"YEAR_BUILD":1932,"WARD":8,"WARD_NAME":"Eglinton-Lawrence","TYPE_DESC":"Fire Station","PUBLIC_ED_OFFICE":" ","FIRE_PREV_OFFICE":" ","FIRE_OTHER":" "},"geometry":{"type":"MultiPoint","coordinates":[[-79.39976830187865,43.70965675951017]]}},{"type":"Feature","properties":{"_id":82,"ADDRESS_POINT_ID":982440.0,"ADDRESS_NUMBER":"1549","LINEAR_NAME_FULL":"Albion Rd","ADDRESS":"1549 Albion Rd","MUNICIPALITY_NAME":"Etobicoke","CENTRELINE_ID":906946,"OBJECTID":5082168,"ID":65,"STATION":413,"YEAR_BUILD":1972,"WARD":1,"WARD_NAME":"Etobicoke North","TYPE_DESC":"Fire Station","PUBLIC_ED_OFFICE":" ","FIRE_PREV_OFFICE":" ","FIRE_OTHER":" "},"geometry":{"type":"MultiPoint","coordinates":[[-79.58690585228841,43.74021870557029]]}},{"type":"Feature","properties":{"_id":83,"ADDRESS_POINT_ID":2820826.0,"ADDRESS_NUMBER":"1550","LINEAR_NAME_FULL":"Midland Ave","ADDRESS":"1550 Midland Ave","MUNICIPALITY_NAME":"Scarborough","CENTRELINE_ID":30122712,"OBJECTID":5127178,"ID":74,"STATION":232,"YEAR_BUILD":1963,"WARD":21,"WARD_NAME":"Scarborough Centre","TYPE_DESC":"Fire Station","PUBLIC_ED_OFFICE":" ","FIRE_PREV_OFFICE":" ","FIRE_OTHER":" "},"geometry":{"type":"MultiPoint","coordinates":[[-79.26685107132796,43.75496694557759]]}},{"type":"Feature","properties":{"_id":84,"ADDRESS_POINT_ID":6620011.0,"ADDRESS_NUMBER":"1313","LINEAR_NAME_FULL":"Woodbine Ave","ADDRESS":"1313 Woodbine Ave","MUNICIPALITY_NAME":"East York","CENTRELINE_ID":6620012,"OBJECTID":5134834,"ID":57,"STATION":224,"YEAR_BUILD":1950,"WARD":19,"WARD_NAME":"Beaches-East York","TYPE_DESC":"Fire Station","PUBLIC_ED_OFFICE":" ","FIRE_PREV_OFFICE":" ","FIRE_OTHER":" "},"geometry":{"type":"MultiPoint","coordinates":[[-79.31659701016208,43.695187459613955]]}},{"type":"Feature","properties":{"_id":85,"ADDRESS_POINT_ID":20110476.0,"ADDRESS_NUMBER":"8500","LINEAR_NAME_FULL":"Sheppard Ave E","ADDRESS":"8500 Sheppard Ave E","MUNICIPALITY_NAME":"Scarborough","CENTRELINE_ID":104501,"OBJECTID":5138239,"ID":18,"STATION":212,"YEAR_BUILD":2003,"WARD":25,"WARD_NAME":"Scarborough-Rouge Park","TYPE_DESC":"Fire Station","PUBLIC_ED_OFFICE":" ","FIRE_PREV_OFFICE":"Fire Prevention Office (E)","FIRE_OTHER":" "},"geometry":{"type":"MultiPoint","coordinates":[[-79.18874082377098,43.80490579237686]]}}]}
